stk.v.4.3 

BEGIN Ephemeris 
 
NumberOfEphemerisPoints		146 
ScenarioEpoch	    1 Sep 2020 11:47:19.186665416 
InterpolationMethod		Lagrange 
InterpolationOrder		5 
CentralBody				Earth 
CoordinateSystem			TEME 
CoordinateSystemEpoch	  1 Sep 2020 11:47:19.186665416 
DistanceUnit			Kilometers 
 
EphemerisTimePosVel 
 
       0.00000000   -6144.39657372    3480.09563322       0.04658082 -0.111896427 -0.474877238  7.455902882
 END Ephemeris 
